start=new Date('2022-10-27T00:00:00.000Z').valueOf();
sats=[{"COUNTRY_CODE":"US","FILE":"3635100","ELEMENT_SET_NO":"999","GP_ID":"216261350","MEAN_MOTION_DDOT":"0.0000000000000","EPHEMERIS_TYPE":"0","MEAN_MOTION_DOT":"0.00002809","ECCENTRICITY":"0.00012110","TLE_LINE1":"1 46376U 20062BD  22299.80606789  .00002809  00000-0  20740-3 0  9999","PERIOD":"95.592","OBJECT_ID":"2020-062BD","INCLINATION":"53.0550","REF_FRAME":"TEME","BSTAR":"0.00020740000000","CENTER_NAME":"EARTH","OBJECT_NAME":"STARLINK-1742","EPOCH":"2022-10-26T19:20:44.265696","NORAD_CAT_ID":"46376","SITE":"AFETR","CLASSIFICATION_TYPE":"U","SEMIMAJOR_AXIS":"6925.350","ARG_OF_PERICENTER":"115.3401","RA_OF_ASC_NODE":"92.7860","RCS_SIZE":"LARGE","OBJECT_TYPE":"PAYLOAD","TIME_SYSTEM":"UTC","REV_AT_EPOCH":"11956","LAUNCH_DATE":"2020-09-03","PERIAPSIS":"546.376","MEAN_ANOMALY":"244.7714","DECAY_DATE":null,"APOAPSIS":"548.053","TLE_LINE2":"2 46376  53.0550  92.7860 0001211 115.3401 244.7714 15.06399673119568","MEAN_ELEMENT_THEORY":"SGP4","MEAN_MOTION":"15.06399673"},{"MEAN_MOTION_DOT":"0.00001003","GP_ID":"216261599","MEAN_MOTION_DDOT":"0.0000000000000","EPHEMERIS_TYPE":"0","ECCENTRICITY":"0.00014130","TLE_LINE1":"1 46380U 20062BH  22299.77244714  .00001003  00000-0  86263-4 0  9994","REF_FRAME":"TEME","BSTAR":"0.00008626300000","PERIOD":"95.593","OBJECT_ID":"2020-062BH","INCLINATION":"53.0533","CENTER_NAME":"EARTH","EPOCH":"2022-10-26T18:32:19.432896","OBJECT_NAME":"STARLINK-1758","NORAD_CAT_ID":"46380","FILE":"3635100","COUNTRY_CODE":"US","ELEMENT_SET_NO":"999","PERIAPSIS":"546.282","MEAN_ANOMALY":"256.3296","APOAPSIS":"548.239","DECAY_DATE":null,"MEAN_ELEMENT_THEORY":"SGP4","TLE_LINE2":"2 46380  53.0533 117.9431 0001413 103.7850 256.3296 15.06384712119215","MEAN_MOTION":"15.06384712","SITE":"AFETR","CLASSIFICATION_TYPE":"U","ARG_OF_PERICENTER":"103.7850","SEMIMAJOR_AXIS":"6925.395","RCS_SIZE":"LARGE","OBJECT_TYPE":"PAYLOAD","RA_OF_ASC_NODE":"117.9431","TIME_SYSTEM":"UTC","LAUNCH_DATE":"2020-09-03","REV_AT_EPOCH":"11921"},{"ELEMENT_SET_NO":"999","FILE":"3635100","COUNTRY_CODE":"US","REF_FRAME":"TEME","BSTAR":"0.00006361900000","OBJECT_ID":"2020-062BK","PERIOD":"95.593","INCLINATION":"53.0554","CENTER_NAME":"EARTH","EPOCH":"2022-10-26T19:41:57.818112","OBJECT_NAME":"STARLINK-1769","NORAD_CAT_ID":"46382","MEAN_MOTION_DOT":"0.00000666","EPHEMERIS_TYPE":"0","GP_ID":"216262350","MEAN_MOTION_DDOT":"0.0000000000000","ECCENTRICITY":"0.00011960","TLE_LINE1":"1 46382U 20062BK  22299.82080808  .00000666  00000-0  63619-4 0  9998","RCS_SIZE":"LARGE","RA_OF_ASC_NODE":"92.7288","OBJECT_TYPE":"PAYLOAD","TIME_SYSTEM":"UTC","LAUNCH_DATE":"2020-09-03","REV_AT_EPOCH":"11957","SITE":"AFETR","CLASSIFICATION_TYPE":"U","ARG_OF_PERICENTER":"83.2930","SEMIMAJOR_AXIS":"6925.368","APOAPSIS":"548.062","DECAY_DATE":null,"MEAN_ELEMENT_THEORY":"SGP4","TLE_LINE2":"2 46382  53.0554  92.7288 0001196  83.2930 276.8195 15.06393554119577","MEAN_MOTION":"15.06393554","PERIAPSIS":"546.405","MEAN_ANOMALY":"276.8195"},{"SITE":"AFETR","CLASSIFICATION_TYPE":"U","SEMIMAJOR_AXIS":"6925.394","ARG_OF_PERICENTER":"80.7417","RCS_SIZE":"LARGE","RA_OF_ASC_NODE":"137.7881","OBJECT_TYPE":"PAYLOAD","TIME_SYSTEM":"UTC","REV_AT_EPOCH":"11893","LAUNCH_DATE":"2020-09-03","PERIAPSIS":"546.449","MEAN_ANOMALY":"279.3704","DECAY_DATE":null,"APOAPSIS":"548.069","TLE_LINE2":"2 46383  53.0535 137.7881 0001170  80.7417 279.3704 15.06385182118931","MEAN_ELEMENT_THEORY":"SGP4","MEAN_MOTION":"15.06385182","COUNTRY_CODE":"US","FILE":"3635100","ELEMENT_SET_NO":"999","GP_ID":"216262593","EPHEMERIS_TYPE":"0","MEAN_MOTION_DDOT":"0.0000000000000","MEAN_MOTION_DOT":"0.00003231","ECCENTRICITY":"0.00011700","TLE_LINE1":"1 46383U 20062BL  22299.80746216  .00003231  00000-0  23576-3 0  9997","PERIOD":"95.593","OBJECT_ID":"2020-062BL","INCLINATION":"53.0535","BSTAR":"0.00023576000000","REF_FRAME":"TEME","CENTER_NAME":"EARTH","EPOCH":"2022-10-26T19:22:44.730624","OBJECT_NAME":"STARLINK-1770","NORAD_CAT_ID":"46383"},{"BSTAR":"0.00026057000000","REF_FRAME":"TEME","PERIOD":"95.593","INCLINATION":"53.0529","OBJECT_ID":"2020-062BM","CENTER_NAME":"EARTH","OBJECT_NAME":"STARLINK-1771","EPOCH":"2022-10-26T19:28:02.974656","NORAD_CAT_ID":"46384","MEAN_MOTION_DOT":"0.00003601","MEAN_MOTION_DDOT":"0.0000000000000","GP_ID":"216261850","EPHEMERIS_TYPE":"0","ECCENTRICITY":"0.00014380","TLE_LINE1":"1 46384U 20062BM  22299.81114554  .00003601  00000-0  26057-3 0  9991","ELEMENT_SET_NO":"999","FILE":"3635100","COUNTRY_CODE":"US","APOAPSIS":"548.236","DECAY_DATE":null,"MEAN_ELEMENT_THEORY":"SGP4","TLE_LINE2":"2 46384  53.0529 137.7544 0001438 117.3118 242.8018 15.06391237118934","MEAN_MOTION":"15.06391237","PERIAPSIS":"546.245","MEAN_ANOMALY":"242.8018","RCS_SIZE":"LARGE","RA_OF_ASC_NODE":"137.7544","OBJECT_TYPE":"PAYLOAD","TIME_SYSTEM":"UTC","LAUNCH_DATE":"2020-09-03","REV_AT_EPOCH":"11893","SITE":"AFETR","CLASSIFICATION_TYPE":"U","ARG_OF_PERICENTER":"117.3118","SEMIMAJOR_AXIS":"6925.375"},{"SEMIMAJOR_AXIS":"6925.325","ARG_OF_PERICENTER":"51.7996","CLASSIFICATION_TYPE":"U","SITE":"AFETR","REV_AT_EPOCH":"11407","LAUNCH_DATE":"2020-10-06","TIME_SYSTEM":"UTC","OBJECT_TYPE":"PAYLOAD","RCS_SIZE":"LARGE","RA_OF_ASC_NODE":"299.5502","MEAN_ANOMALY":"308.3210","PERIAPSIS":"545.520","MEAN_MOTION":"15.06407601","TLE_LINE2":"2 46532  53.0561 299.5502 0002412  51.7996 308.3210 15.06407601114070","MEAN_ELEMENT_THEORY":"SGP4","APOAPSIS":"548.861","DECAY_DATE":null,"COUNTRY_CODE":"US","FILE":"3634846","ELEMENT_SET_NO":"999","TLE_LINE1":"1 46532U 20070A   22299.41305049 -.00001337  00000-0 -70858-4 0  9997","ECCENTRICITY":"0.00024120","GP_ID":"216206078","EPHEMERIS_TYPE":"0","MEAN_MOTION_DDOT":"0.0000000000000","MEAN_MOTION_DOT":"-0.00001337","NORAD_CAT_ID":"46532","EPOCH":"2022-10-26T09:54:47.562336","OBJECT_NAME":"STARLINK-1644","CENTER_NAME":"EARTH","INCLINATION":"53.0561","PERIOD":"95.592","OBJECT_ID":"2020-070A","REF_FRAME":"TEME","BSTAR":"-0.00007085800000"},{"REF_FRAME":"TEME","BSTAR":"0.00040053000000","INCLINATION":"53.0549","PERIOD":"95.594","OBJECT_ID":"2020-070B","CENTER_NAME":"EARTH","OBJECT_NAME":"STARLINK-1648","EPOCH":"2022-10-26T16:32:53.458368","NORAD_CAT_ID":"46533","MEAN_MOTION_DOT":"0.00005683","GP_ID":"216262364","EPHEMERIS_TYPE":"0","MEAN_MOTION_DDOT":"0.0000000000000","ECCENTRICITY":"0.00023940","TLE_LINE1":"1 46533U 20070B   22299.68950762  .00005683  00000-0  40053-3 0  9994","ELEMENT_SET_NO":"999","FILE":"3635100","COUNTRY_CODE":"US","DECAY_DATE":null,"APOAPSIS":"548.985","MEAN_ELEMENT_THEORY":"SGP4","TLE_LINE2":"2 46533  53.0549 298.2967 0002394  37.5511 322.5645 15.06362871114116","MEAN_MOTION":"15.06362871","PERIAPSIS":"545.669","MEAN_ANOMALY":"322.5645","RA_OF_ASC_NODE":"298.2967","RCS_SIZE":"LARGE","OBJECT_TYPE":"PAYLOAD","TIME_SYSTEM":"UTC","LAUNCH_DATE":"2020-10-06","REV_AT_EPOCH":"11411","SITE":"AFETR","CLASSIFICATION_TYPE":"U","ARG_OF_PERICENTER":"37.5511","SEMIMAJOR_AXIS":"6925.462"},{"MEAN_MOTION_DDOT":"0.0000000000000","GP_ID":"216262607","EPHEMERIS_TYPE":"0","MEAN_MOTION_DOT":"0.00001202","TLE_LINE1":"1 46534U 20070C   22299.80376284  .00001202  00000-0  99603-4 0  9999","ECCENTRICITY":"0.00027110","CENTER_NAME":"EARTH","PERIOD":"95.593","OBJECT_ID":"2020-070C","INCLINATION":"53.0539","REF_FRAME":"TEME","BSTAR":"0.00009960300000","NORAD_CAT_ID":"46534","EPOCH":"2022-10-26T19:17:25.109376","OBJECT_NAME":"STARLINK-1659","COUNTRY_CODE":"US","FILE":"3635100","ELEMENT_SET_NO":"999","MEAN_ANOMALY":"319.7823","PERIAPSIS":"545.355","DECAY_DATE":null,"APOAPSIS":"549.110","MEAN_MOTION":"15.06393672","TLE_LINE2":"2 46534  53.0539 297.7954 0002711  40.3367 319.7823 15.06393672114131","MEAN_ELEMENT_THEORY":"SGP4","CLASSIFICATION_TYPE":"U","SITE":"AFETR","SEMIMAJOR_AXIS":"6925.368","ARG_OF_PERICENTER":"40.3367","TIME_SYSTEM":"UTC","RA_OF_ASC_NODE":"297.7954","RCS_SIZE":"LARGE","OBJECT_TYPE":"PAYLOAD","REV_AT_EPOCH":"11413","LAUNCH_DATE":"2020-10-06"},{"TLE_LINE1":"1 46535U 20070D   22299.72637644  .00003747  00000-0  27044-3 0  9996","ECCENTRICITY":"0.00022020","GP_ID":"216261864","EPHEMERIS_TYPE":"0","MEAN_MOTION_DDOT":"0.0000000000000","MEAN_MOTION_DOT":"0.00003747","NORAD_CAT_ID":"46535","EPOCH":"2022-10-26T17:25:58.924416","OBJECT_NAME":"STARLINK-1663","CENTER_NAME":"EARTH","INCLINATION":"53.0542","PERIOD":"95.593","OBJECT_ID":"2020-070D","REF_FRAME":"TEME","BSTAR":"0.00027044000000","COUNTRY_CODE":"US","FILE":"3635100","ELEMENT_SET_NO":"999","MEAN_ANOMALY":"318.3136","PERIAPSIS":"545.734","MEAN_MOTION":"15.06385176","TLE_LINE2":"2 46535  53.0542 298.1509 0002202  41.8021 318.3136 15.06385176114115","MEAN_ELEMENT_THEORY":"SGP4","DECAY_DATE":null,"APOAPSIS":"548.784","SEMIMAJOR_AXIS":"6925.394","ARG_OF_PERICENTER":"41.8021","CLASSIFICATION_TYPE":"U","SITE":"AFETR","REV_AT_EPOCH":"11411","LAUNCH_DATE":"2020-10-06","TIME_SYSTEM":"UTC","RCS_SIZE":"LARGE","OBJECT_TYPE":"PAYLOAD","RA_OF_ASC_NODE":"298.1509"},{"CLASSIFICATION_TYPE":"U","SITE":"AFETR","SEMIMAJOR_AXIS":"6925.352","ARG_OF_PERICENTER":"37.4135","TIME_SYSTEM":"UTC","RCS_SIZE":"LARGE","OBJECT_TYPE":"PAYLOAD","RA_OF_ASC_NODE":"299.5159","REV_AT_EPOCH":"11407","LAUNCH_DATE":"2020-10-06","MEAN_ANOMALY":"322.7005","PERIAPSIS":"545.713","APOAPSIS":"548.721","DECAY_DATE":null,"MEAN_MOTION":"15.06398883","TLE_LINE2":"2 46537  53.0563 299.5159 0002172  37.4135 322.7005 15.06398883114077","MEAN_ELEMENT_THEORY":"SGP4","COUNTRY_CODE":"US","FILE":"3634846","ELEMENT_SET_NO":"999","GP_ID":"216205578","MEAN_MOTION_DDOT":"0.0000000000000","EPHEMERIS_TYPE":"0","MEAN_MOTION_DOT":"0.00002205","TLE_LINE1":"1 46537U 20070F   22299.42041729  .00002205  00000-0  16692-3 0  9993","ECCENTRICITY":"0.00021720","CENTER_NAME":"EARTH","OBJECT_ID":"2020-070F","PERIOD":"95.592","INCLINATION":"53.0563","REF_FRAME":"TEME","BSTAR":"0.00016692000000","NORAD_CAT_ID":"46537","EPOCH":"2022-10-26T10:05:24.053856","OBJECT_NAME":"STARLINK-1672"}];
